STARLINK-2564           
1 48284U 21036J   26068.40419706 -.00002535  00000+0 -73526-4 0  9994
2 48284  53.1593  77.1004 0001545  91.2892 268.8285 15.30187265268350
TOMORROW-S4             
1 62386U 24247K   26068.53305366  .00012677  00000+0  46927-3 0  9990
2 62386  44.9818 117.9996 0004434 210.4078 149.6548 15.27717249 67702
